OBJECT_NAME,OBJECT_ID,EPOCH,MEAN_MOTION,ECCENTRICITY,INCLINATION,RA_OF_ASC_NODE,ARG_OF_PERICENTER,MEAN_ANOMALY,EPHEMERIS_TYPE,CLASSIFICATION_TYPE,NORAD_CAT_ID,ELEMENT_SET_NO,REV_AT_EPOCH,BSTAR,MEAN_MOTION_DOT,MEAN_MOTION_DDOT
M2 PATHFINDER,2020-037E,2026-07-11T12:26:29.294304,15.04785547,.0013276,97.8150,24.0254,74.1072,286.1615,0,U,45727,999,32915,.8091E-4,.1079E-4,0
NETSAT-4,2020-068U,2026-07-11T11:43:39.315936,15.44673317,.0004344,97.8607,202.6960,207.7284,152.3732,0,U,46504,999,31952,.23469E-3,.10849E-3,0
NETSAT-3,2020-068V,2026-07-11T12:19:07.711680,15.43523972,.0003375,97.8654,200.9095,227.8335,132.2625,0,U,46505,999,31943,.25496E-3,.11343E-3,0
NETSAT-1,2020-068W,2026-07-11T12:24:41.126688,15.35190668,.0002442,97.8751,194.9530,285.9408,74.1564,0,U,46506,999,31903,.21211E-3,.7156E-4,0
NETSAT-2,2020-068X,2026-07-11T11:50:17.988864,15.47053756,.000171,97.8617,202.6888,228.7262,131.3840,0,U,46507,999,31949,.29028E-3,.14589E-3,0
GREENCUBE (IO-117),2022-080E,2026-07-11T07:23:26.296800,6.42583311,.0009046,70.1420,289.8579,284.3679,75.5976,0,U,53109,999,9361,0,-.3E-7,0
SITRO-AIS 5 (KATYS),2023-091L,2026-07-11T11:15:21.143808,15.30011184,.0011061,97.5054,256.6063,25.5059,334.6725,0,U,57176,999,16805,.26121E-3,.7523E-4,0
SITRO-AIS 6 (CHIRKIN),2023-091AC,2026-07-11T12:06:44.485920,15.26393933,.0011563,97.5061,255.6307,29.2049,330.9834,0,U,57192,999,16799,.22928E-3,.5901E-4,0
SITRO-AIS 8 (ANOKHIN),2023-091AD,2026-07-11T12:11:37.195296,15.32793737,.0009896,97.5050,258.3353,21.2906,338.8745,0,U,57193,999,16817,.26014E-3,.8171E-4,0
SITRO-AIS 7 (FARTUSHNIY),2023-091AE,2026-07-11T12:18:33.657984,15.26069892,.0011526,97.5057,255.4511,30.3145,329.8758,0,U,57194,999,16798,.23149E-3,.5901E-4,0
SITRO-AIS 10 (BURDAEV),2023-091AK,2026-07-11T10:26:52.406592,15.39533083,.000519,97.5075,263.5708,357.1450,2.9764,0,U,57199,999,16849,.31682E-3,.12373E-3,0
SITRO-AIS 9 (SHCHUKIN),2023-091AM,2026-07-11T11:16:14.566656,15.39020809,.0005463,97.5073,263.3165,357.2473,2.8741,0,U,57201,999,16848,.31237E-3,.11994E-3,0
SITRO-AIS 12 (SMIRENNIY),2023-091AQ,2026-07-11T12:29:41.458272,15.39317442,.0004982,97.5087,263.8513,349.9858,10.1287,0,U,57204,999,16851,.30613E-3,.11867E-3,0
SITRO-AIS 11 (SHEFFER),2023-091AU,2026-07-11T11:05:34.492128,15.39758023,.0004881,97.5085,264.0536,349.6162,10.4982,0,U,57208,999,16852,.31274E-3,.12302E-3,0
SITRO-AIS 25,2024-039R,2026-07-11T11:52:52.425408,14.93629272,.014252,95.3895,251.7965,242.6100,116.0565,0,U,59066,999,12835,.12755E-3,.1608E-4,0
SITRO-AIS 26,2024-039S,2026-07-11T11:59:40.170336,14.93421369,.0142859,95.3896,251.6923,243.2116,115.4437,0,U,59067,999,12834,.13278E-3,.1668E-4,0
SITRO-AIS 27,2024-039T,2026-07-11T12:43:25.341888,14.93847041,.0141936,95.3900,251.9964,241.6504,117.0347,0,U,59068,999,12837,.13539E-3,.1717E-4,0
SITRO-AIS 28,2024-039U,2026-07-11T12:10:09.531264,14.93879295,.0141837,95.3899,252.0291,241.5600,117.1273,0,U,59071,999,12837,.15013E-3,.1909E-4,0
GRBBETA,2024-128C,2026-07-11T07:27:10.573056,15.06792341,.0037525,61.9892,131.6189,139.8192,220.5686,0,U,60237,999,10990,.16151E-3,.2233E-4,0
OOV-CUBE (TUBSAT-30),2024-128F,2026-07-11T09:47:33.954432,15.02864718,.0041583,61.9942,141.1095,139.1306,221.2916,0,U,60240,999,10975,.10331E-3,.1201E-4,0
ROBUSTA-3A (MEDITERRANEE),2024-128J,2026-07-11T06:38:14.040960,15.11950960,.0038425,61.9858,123.0385,133.2225,227.2090,0,U,60243,999,11006,.27907E-3,.4666E-4,0
LASARSAT,2024-247Q,2026-07-09T06:04:47.656704,15.47760337,.00065601,44.9739,138.0904,123.7678,236.3838,0,U,62391,999,8673,.55885757E-3,.29396E-3,0
CROCUBE,2024-247T,2026-07-10T04:33:02.620224,15.49924104,.00069141,44.9700,129.7539,137.1599,222.9832,0,U,62394,999,8691,.58811806E-3,.33442E-3,0
FORESAIL-1 PRIME,2025-276DS,2026-07-09T19:00:48.274560,15.18908946,.00032784,97.4192,263.6509,56.5130,303.6417,0,U,66778,999,3383,.15287384E-3,.3123E-4,0
KNACKSAT-2,1998-067XZ,2026-07-11T08:33:41.694048,15.62129323,.0008194,51.6254,172.7064,314.9456,45.0873,0,U,67683,999,2405,.40006E-3,.35473E-3,0
