M2 PATHFINDER           
1 45727U 20037E   26192.51839461  .00001079  00000+0  80910-4 0  9992
2 45727  97.8150  24.0254 0013276  74.1072 286.1615 15.04785547329159
NETSAT-4                
1 46504U 20068U   26192.48864949  .00010849  00000+0  23469-3 0  9995
2 46504  97.8607 202.6960 0004344 207.7284 152.3732 15.44673317319522
NETSAT-3                
1 46505U 20068V   26192.51328370  .00011343  00000+0  25496-3 0  9995
2 46505  97.8654 200.9095 0003375 227.8335 132.2625 15.43523972319436
NETSAT-1                
1 46506U 20068W   26192.51714267  .00007156  00000+0  21211-3 0  9998
2 46506  97.8751 194.9530 0002442 285.9408  74.1564 15.35190668319036
NETSAT-2                
1 46507U 20068X   26192.49326376  .00014589  00000+0  29028-3 0  9998
2 46507  97.8617 202.6888 0001710 228.7262 131.3840 15.47053756319493
GREENCUBE (IO-117)      
1 53109U 22080E   26192.30794325 -.00000003  00000+0  00000+0 0  9995
2 53109  70.1420 289.8579 0009046 284.3679  75.5976  6.42583311 93611
SITRO-AIS 5 (KATYS)     
1 57176U 23091L   26192.46899472  .00007523  00000+0  26121-3 0  9991
2 57176  97.5054 256.6063 0011061  25.5059 334.6725 15.30011184168055
SITRO-AIS 6 (CHIRKIN)   
1 57192U 23091AC  26192.50468155  .00005901  00000+0  22928-3 0  9993
2 57192  97.5061 255.6307 0011563  29.2049 330.9834 15.26393933167990
SITRO-AIS 8 (ANOKHIN)   
1 57193U 23091AD  26192.50806939  .00008171  00000+0  26014-3 0  9992
2 57193  97.5050 258.3353 0009896  21.2906 338.8745 15.32793737168172
SITRO-AIS 7 (FARTUSHNIY)
1 57194U 23091AE  26192.51288956  .00005901  00000+0  23149-3 0  9991
2 57194  97.5057 255.4511 0011526  30.3145 329.8758 15.26069892167986
SITRO-AIS 10 (BURDAEV)  
1 57199U 23091AK  26192.43532878  .00012373  00000+0  31682-3 0  9994
2 57199  97.5075 263.5708 0005190 357.1450   2.9764 15.39533083168493
SITRO-AIS 9 (SHCHUKIN)  
1 57201U 23091AM  26192.46961304  .00011994  00000+0  31237-3 0  9995
2 57201  97.5073 263.3165 0005463 357.2473   2.8741 15.39020809168489
SITRO-AIS 12 (SMIRENNIY)
1 57204U 23091AQ  26192.52061873  .00011867  00000+0  30613-3 0  9993
2 57204  97.5087 263.8513 0004982 349.9858  10.1287 15.39317442168512
SITRO-AIS 11 (SHEFFER)  
1 57208U 23091AU  26192.46220477  .00012302  00000+0  31274-3 0  9996
2 57208  97.5085 264.0536 0004881 349.6162  10.4982 15.39758023168525
SITRO-AIS 25            
1 59066U 24039R   26192.49505122  .00001608  00000+0  12755-3 0  9999
2 59066  95.3895 251.7965 0142520 242.6100 116.0565 14.93629272128359
SITRO-AIS 26            
1 59067U 24039S   26192.49977049  .00001668  00000+0  13278-3 0  9998
2 59067  95.3896 251.6923 0142859 243.2116 115.4437 14.93421369128340
SITRO-AIS 27            
1 59068U 24039T   26192.53015442  .00001717  00000+0  13539-3 0  9999
2 59068  95.3900 251.9964 0141936 241.6504 117.0347 14.93847041128373
SITRO-AIS 28            
1 59071U 24039U   26192.50705476  .00001909  00000+0  15013-3 0  9995
2 59071  95.3899 252.0291 0141837 241.5600 117.1273 14.93879295128370
GRBBETA                 
1 60237U 24128C   26192.31053904  .00002233  00000+0  16151-3 0  9996
2 60237  61.9892 131.6189 0037525 139.8192 220.5686 15.06792341109905
OOV-CUBE (TUBSAT-30)    
1 60240U 24128F   26192.40803188  .00001201  00000+0  10331-3 0  9995
2 60240  61.9942 141.1095 0041583 139.1306 221.2916 15.02864718109757
ROBUSTA-3A (MEDITERRAN*)
1 60243U 24128J   26192.27655140  .00004666  00000+0  27907-3 0  9991
2 60243  61.9858 123.0385 0038425 133.2225 227.2090 15.11950960110063
LASARSAT                
1 62391U 24247Q   26190.25332936  .00029396  00000+0  55886-3 0  9994
2 62391  44.9739 138.0904 0006560 123.7678 236.3838 15.47760337 86735
CROCUBE                 
1 62394U 24247T   26191.18961366  .00033442  00000+0  58812-3 0  9994
2 62394  44.9700 129.7539 0006914 137.1599 222.9832 15.49924104 86912
FORESAIL-1 PRIME        
1 66778U 25276DS  26190.79222540  .00003123  00000+0  15287-3 0  9999
2 66778  97.4192 263.6509 0003278  56.5130 303.6417 15.18908946 33831
KNACKSAT-2              
1 67683U 98067XZ  26192.35673257  .00035473  00000+0  40006-3 0  9992
2 67683  51.6254 172.7064 0008194 314.9456  45.0873 15.62129323 24058
